[{"OBJECT_NAME":"STARLINK-31526","OBJECT_ID":"2024-036U","EPOCH":"2026-03-09T23:29:35.594016","MEAN_MOTION":15.30201488,"ECCENTRICITY":0.00013669,"INCLINATION":53.1584,"RA_OF_ASC_NODE":51.442,"ARG_OF_PERICENTER":93.7501,"MEAN_ANOMALY":266.3656,"EPHEMERIS_TYPE":0,"CLASSIFICATION_TYPE":"U","NORAD_CAT_ID":59016,"ELEMENT_SET_NO":999,"REV_AT_EPOCH":11572,"BSTAR":0.00034500392,"MEAN_MOTION_DOT":9.873e-5,"MEAN_MOTION_DDOT":0},{"OBJECT_NAME":"TEVEL2-3","OBJECT_ID":"2025-052J","EPOCH":"2026-03-09T15:29:22.754400","MEAN_MOTION":15.30377031,"ECCENTRICITY":0.0004761,"INCLINATION":97.3994,"RA_OF_ASC_NODE":324.7775,"ARG_OF_PERICENTER":105.7353,"MEAN_ANOMALY":254.4413,"EPHEMERIS_TYPE":0,"CLASSIFICATION_TYPE":"U","NORAD_CAT_ID":63218,"ELEMENT_SET_NO":999,"REV_AT_EPOCH":5485,"BSTAR":0.00069446,"MEAN_MOTION_DOT":0.00020365,"MEAN_MOTION_DDOT":0}]
